{"type": "FeatureCollection", "features": [ {"type": "Feature", "properties": {"norad_id": 29940, "name": "FENGYUN 1C DEB", "group": "fengyun-1c-debris", "lat": -80.62241555864618, "lon": 68.82136918049099, "alt_km": 889.5428416700488, "timestamp": "2025-12-18T13:51:49.956213+00:00", "meta": {"OBJECT_NAME": "FENGYUN 1C DEB", "OBJECT_ID": "1999-025JN", "EPOCH": "2025-12-17T23:06:45.145728", "MEAN_MOTION": 14.18834368, "ECCENTRICITY": 0.00746798, "INCLINATION": 98.621, "RA_OF_ASC_NODE": 1.4987, "ARG_OF_PERICENTER": 84.964, "MEAN_ANOMALY": 291.2077, "EPHEMERIS_TYPE": 0, "CLASSIFICATION_TYPE": "U", "NORAD_CAT_ID": 29940, "ELEMENT_SET_NO": 999, "REV_AT_EPOCH": 97562, "BSTAR": 0.0005058499, "MEAN_MOTION_DOT": 1.04e-05, "MEAN_MOTION_DDOT": 0}, "tle": {"line1": "1 29940U 99025JN  25351.96302252  .00001040  00000+0  50585-3 0  9994", "line2": "2 29940  98.6210   1.4987 0074679  84.9640 291.2077 14.18834368975628"}}, "geometry": {"type": "Point", "coordinates": [68.82136918049099, -80.62241555864618]}}, {"type": "Feature", "properties": {"norad_id": 29942, "name": "FENGYUN 1C DEB", "group": "fengyun-1c-debris", "lat": 18.49731922501841, "lon": 55.4597521488977, "alt_km": 808.0614120394885, "timestamp": "2025-12-18T13:51:49.956223+00:00", "meta": {"OBJECT_NAME": "FENGYUN 1C DEB", "OBJECT_ID": "1999-025JQ", "EPOCH": "2025-12-18T03:42:13.301568", "MEAN_MOTION": 14.30431343, "ECCENTRICITY": 0.00489873, "INCLINATION": 98.6368, "RA_OF_ASC_NODE": 57.9541, "ARG_OF_PERICENTER": 259.8894, "MEAN_ANOMALY": 99.676, "EPHEMERIS_TYPE": 0, "CLASSIFICATION_TYPE": "U", "NORAD_CAT_ID": 29942, "ELEMENT_SET_NO": 999, "REV_AT_EPOCH": 97946, "BSTAR": 0.00055645369, "MEAN_MOTION_DOT": 1.422e-05, "MEAN_MOTION_DDOT": 0}, "tle": {"line1": "1 29942U 99025JQ  25352.15432062  .00001422  00000+0  55645-3 0  9997", "line2": "2 29942  98.6368  57.9541 0048987 259.8894  99.6760 14.30431343979468"}}, "geometry": {"type": "Point", "coordinates": [55.4597521488977, 18.49731922501841]}}, {"type": "Feature", "properties": {"norad_id": 29943, "name": "FENGYUN 1C DEB", "group": "fengyun-1c-debris", "lat": -70.42716462570841, "lon": 154.56216984630518, "alt_km": 848.8846992635436, "timestamp": "2025-12-18T13:51:49.956233+00:00", "meta": {"OBJECT_NAME": "FENGYUN 1C DEB", "OBJECT_ID": "1999-025JR", "EPOCH": "2025-12-18T00:50:42.543168", "MEAN_MOTION": 14.09672179, "ECCENTRICITY": 0.00350818, "INCLINATION": 98.7266, "RA_OF_ASC_NODE": 359.6302, "ARG_OF_PERICENTER": 211.7375, "MEAN_ANOMALY": 169.0833, "EPHEMERIS_TYPE": 0, "CLASSIFICATION_TYPE": "U", "NORAD_CAT_ID": 29943, "ELEMENT_SET_NO": 999, "REV_AT_EPOCH": 97381, "BSTAR": 9.8811364e-05, "MEAN_MOTION_DOT": 1.31e-06, "MEAN_MOTION_DDOT": 0}, "tle": {"line1": "1 29943U 99025JR  25352.03521462  .00000131  00000+0  98811-4 0  9997", "line2": "2 29943  98.7266 359.6302 0035081 211.7375 169.0833 14.09672179973812"}}, "geometry": {"type": "Point", "coordinates": [154.56216984630518, -70.42716462570841]}}, {"type": "Feature", "properties": {"norad_id": 29944, "name": "FENGYUN 1C DEB", "group": "fengyun-1c-debris", "lat": -74.74542019199171, "lon": 71.89058409001535, "alt_km": 528.591682065402, "timestamp": "2025-12-18T13:51:49.956244+00:00", "meta": {"OBJECT_NAME": "FENGYUN 1C DEB", "OBJECT_ID": "1999-025JS", "EPOCH": "2025-12-17T18:57:10.307232", "MEAN_MOTION": 14.87594871, "ECCENTRICITY": 0.01664422, "INCLINATION": 99.0042, "RA_OF_ASC_NODE": 286.5484, "ARG_OF_PERICENTER": 215.8094, "MEAN_ANOMALY": 143.1869, "EPHEMERIS_TYPE": 0, "CLASSIFICATION_TYPE": "U", "NORAD_CAT_ID": 29944, "ELEMENT_SET_NO": 999, "REV_AT_EPOCH": 529, "BSTAR": 0.00052437851, "MEAN_MOTION_DOT": 6.074e-05, "MEAN_MOTION_DDOT": 0}, "tle": {"line1": "1 29944U 99025JS  25351.78970263  .00006074  00000+0  52438-3 0  9992", "line2": "2 29944  99.0042 286.5484 0166442 215.8094 143.1869 14.87594871  5295"}}, "geometry": {"type": "Point", "coordinates": [71.89058409001535, -74.74542019199171]}}, {"type": "Feature", "properties": {"norad_id": 29945, "name": "FENGYUN 1C DEB", "group": "fengyun-1c-debris", "lat": 13.060533407152219, "lon": 13.986755062433058, "alt_km": 855.879733227498, "timestamp": "2025-12-18T13:51:49.956255+00:00", "meta": {"OBJECT_NAME": "FENGYUN 1C DEB", "OBJECT_ID": "1999-025JT", "EPOCH": "2025-12-18T07:15:27.055008", "MEAN_MOTION": 14.05574586, "ECCENTRICITY": 0.00306091, "INCLINATION": 98.7913, "RA_OF_ASC_NODE": 15.7771, "ARG_OF_PERICENTER": 346.6678, "MEAN_ANOMALY": 74.4132, "EPHEMERIS_TYPE": 0, "CLASSIFICATION_TYPE": "U", "NORAD_CAT_ID": 29945, "ELEMENT_SET_NO": 999, "REV_AT_EPOCH": 97056, "BSTAR": 0.00023210909, "MEAN_MOTION_DOT": 3.36e-06, "MEAN_MOTION_DDOT": 0}, "tle": {"line1": "1 29945U 99025JT  25352.30239647  .00000336  00000+0  23211-3 0  9998", "line2": "2 29945  98.7913  15.7771 0030609 346.6678  74.4132 14.05574586970567"}}, "geometry": {"type": "Point", "coordinates": [13.986755062433058, 13.060533407152219]}}, {"type": "Feature", "properties": {"norad_id": 29946, "name": "FENGYUN 1C DEB", "group": "fengyun-1c-debris", "lat": 81.02772478384831, "lon": -117.14275433022449, "alt_km": 890.8444402667092, "timestamp": "2025-12-18T13:51:49.956265+00:00", "meta": {"OBJECT_NAME": "FENGYUN 1C DEB", "OBJECT_ID": "1999-025JU", "EPOCH": "2025-12-17T22:24:35.610336", "MEAN_MOTION": 14.08259536, "ECCENTRICITY": 0.00804328, "INCLINATION": 98.7801, "RA_OF_ASC_NODE": 344.0342, "ARG_OF_PERICENTER": 328.8047, "MEAN_ANOMALY": 99.5927, "EPHEMERIS_TYPE": 0, "CLASSIFICATION_TYPE": "U", "NORAD_CAT_ID": 29946, "ELEMENT_SET_NO": 999, "REV_AT_EPOCH": 97120, "BSTAR": 0.00027866603, "MEAN_MOTION_DOT": 4.47e-06, "MEAN_MOTION_DDOT": 0}, "tle": {"line1": "1 29946U 99025JU  25351.93374549  .00000447  00000+0  27867-3 0  9992", "line2": "2 29946  98.7801 344.0342 0080432 328.8047  99.5927 14.08259536971207"}}, "geometry": {"type": "Point", "coordinates": [-117.14275433022449, 81.02772478384831]}}, {"type": "Feature", "properties": {"norad_id": 29947, "name": "FENGYUN 1C DEB", "group": "fengyun-1c-debris", "lat": -37.67299044809818, "lon": 29.8597000345478, "alt_km": 913.1712664348624, "timestamp": "2025-12-18T13:51:49.956275+00:00", "meta": {"OBJECT_NAME": "FENGYUN 1C DEB", "OBJECT_ID": "1999-025JV", "EPOCH": "2025-12-18T02:22:36.427008", "MEAN_MOTION": 14.03075641, "ECCENTRICITY": 0.00409375, "INCLINATION": 98.8371, "RA_OF_ASC_NODE": 22.496, "ARG_OF_PERICENTER": 106.158, "MEAN_ANOMALY": 319.762, "EPHEMERIS_TYPE": 0, "CLASSIFICATION_TYPE": "U", "NORAD_CAT_ID": 29947, "ELEMENT_SET_NO": 999, "REV_AT_EPOCH": 96825, "BSTAR": 0.00039937958, "MEAN_MOTION_DOT": 5.83e-06, "MEAN_MOTION_DDOT": 0}, "tle": {"line1": "1 29947U 99025JV  25352.09903272  .00000583  00000+0  39938-3 0  9995", "line2": "2 29947  98.8371  22.4960 0040937 106.1580 319.7620 14.03075641968255"}}, "geometry": {"type": "Point", "coordinates": [29.8597000345478, -37.67299044809818]}}, {"type": "Feature", "properties": {"norad_id": 29948, "name": "FENGYUN 1C DEB", "group": "fengyun-1c-debris", "lat": -72.3732719282428, "lon": 129.33811489975764, "alt_km": 831.277970509469, "timestamp": "2025-12-18T13:51:49.956285+00:00", "meta": {"OBJECT_NAME": "FENGYUN 1C DEB", "OBJECT_ID": "1999-025JW", "EPOCH": "2025-12-18T05:54:11.316384", "MEAN_MOTION": 14.0619594, "ECCENTRICITY": 0.00839261, "INCLINATION": 98.8244, "RA_OF_ASC_NODE": 338.2837, "ARG_OF_PERICENTER": 217.981, "MEAN_ANOMALY": 157.8624, "EPHEMERIS_TYPE": 0, "CLASSIFICATION_TYPE": "U", "NORAD_CAT_ID": 29948, "ELEMENT_SET_NO": 999, "REV_AT_EPOCH": 97054, "BSTAR": 0.00020255188, "MEAN_MOTION_DOT": 3.01e-06, "MEAN_MOTION_DDOT": 0}, "tle": {"line1": "1 29948U 99025JW  25352.24596431  .00000301  00000+0  20255-3 0  9998", "line2": "2 29948  98.8244 338.2837 0083926 217.9810 157.8624 14.06195940970546"}}, "geometry": {"type": "Point", "coordinates": [129.33811489975764, -72.3732719282428]}}, {"type": "Feature", "properties": {"norad_id": 29949, "name": "FENGYUN 1C DEB", "group": "fengyun-1c-debris", "lat": -39.74300033767162, "lon": -179.28800747741312, "alt_km": 870.4484072064542, "timestamp": "2025-12-18T13:51:49.956353+00:00", "meta": {"OBJECT_NAME": "FENGYUN 1C DEB", "OBJECT_ID": "1999-025JX", "EPOCH": "2025-12-18T07:46:14.947104", "MEAN_MOTION": 14.0682827, "ECCENTRICITY": 0.00230818, "INCLINATION": 98.7619, "RA_OF_ASC_NODE": 7.8337, "ARG_OF_PERICENTER": 289.1678, "MEAN_ANOMALY": 86.2227, "EPHEMERIS_TYPE": 0, "CLASSIFICATION_TYPE": "U", "NORAD_CAT_ID": 29949, "ELEMENT_SET_NO": 999, "REV_AT_EPOCH": 97186, "BSTAR": 8.671274e-05, "MEAN_MOTION_DOT": 1.02e-06, "MEAN_MOTION_DDOT": 0}, "tle": {"line1": "1 29949U 99025JX  25352.32378411  .00000102  00000+0  86713-4 0  9995", "line2": "2 29949  98.7619   7.8337 0023081 289.1678  86.2227 14.06828270971864"}}, "geometry": {"type": "Point", "coordinates": [-179.28800747741312, -39.74300033767162]}}, {"type": "Feature", "properties": {"norad_id": 29950, "name": "FENGYUN 1C DEB", "group": "fengyun-1c-debris", "lat": 49.824251401771235, "lon": -146.0099336822343, "alt_km": 855.9815854235276, "timestamp": "2025-12-18T13:51:49.956366+00:00", "meta": {"OBJECT_NAME": "FENGYUN 1C DEB", "OBJECT_ID": "1999-025JY", "EPOCH": "2025-12-18T01:27:53.650368", "MEAN_MOTION": 14.10336589, "ECCENTRICITY": 0.00325151, "INCLINATION": 98.7405, "RA_OF_ASC_NODE": 22.9898, "ARG_OF_PERICENTER": 226.6842, "MEAN_ANOMALY": 161.4429, "EPHEMERIS_TYPE": 0, "CLASSIFICATION_TYPE": "U", "NORAD_CAT_ID": 29950, "ELEMENT_SET_NO": 999, "REV_AT_EPOCH": 97366, "BSTAR": 7.490485e-05, "MEAN_MOTION_DOT": 9.1e-07, "MEAN_MOTION_DDOT": 0}, "tle": {"line1": "1 29950U 99025JY  25352.06103762  .00000091  00000+0  74905-4 0  9990", "line2": "2 29950  98.7405  22.9898 0032515 226.6842 161.4429 14.10336589973662"}}, "geometry": {"type": "Point", "coordinates": [-146.0099336822343, 49.824251401771235]}}]}